[{"pk": 1, "model": "country.municipality", "fields": {"logo": "", "postal_code": 101, "name": "Reykjav\u00edk", "area": 1}}, {"pk": 2, "model": "country.municipality", "fields": {"logo": "", "postal_code": 102, "name": "Reykjav\u00edk", "area": 1}}, {"pk": 3, "model": "country.municipality", "fields": {"logo": "", "postal_code": 103, "name": "Reykjav\u00edk", "area": 1}}, {"pk": 4, "model": "country.municipality", "fields": {"logo": "", "postal_code": 104, "name": "Reykjav\u00edk", "area": 1}}, {"pk": 5, "model": "country.municipality", "fields": {"logo": "", "postal_code": 105, "name": "Reykjav\u00edk", "area": 1}}, {"pk": 6, "model": "country.municipality", "fields": {"logo": "", "postal_code": 107, "name": "Reykjav\u00edk", "area": 1}}, {"pk": 7, "model": "country.municipality", "fields": {"logo": "", "postal_code": 108, "name": "Reykjav\u00edk", "area": 1}}, {"pk": 8, "model": "country.municipality", "fields": {"logo": "", "postal_code": 109, "name": "Reykjav\u00edk", "area": 1}}, {"pk": 9, "model": "country.municipality", "fields": {"logo": "", "postal_code": 110, "name": "Reykjav\u00edk", "area": 1}}, {"pk": 10, "model": "country.municipality", "fields": {"logo": "", "postal_code": 111, "name": "Reykjav\u00edk", "area": 1}}, {"pk": 11, "model": "country.municipality", "fields": {"logo": "", "postal_code": 112, "name": "Reykjav\u00edk", "area": 1}}, {"pk": 12, "model": "country.municipality", "fields": {"logo": "", "postal_code": 113, "name": "Reykjav\u00edk", "area": 1}}, {"pk": 13, "model": "country.municipality", "fields": {"logo": "", "postal_code": 116, "name": "Reykjav\u00edk", "area": 1}}, {"pk": 14, "model": "country.municipality", "fields": {"logo": "", "postal_code": 121, "name": "Reykjav\u00edk", "area": 1}}, {"pk": 15, "model": "country.municipality", "fields": {"logo": "", "postal_code": 123, "name": "Reykjav\u00edk", "area": 1}}, {"pk": 16, "model": "country.municipality", "fields": {"logo": "", "postal_code": 124, "name": "Reykjav\u00edk", "area": 1}}, {"pk": 17, "model": "country.municipality", "fields": {"logo": "", "postal_code": 125, "name": "Reykjav\u00edk", "area": 1}}, {"pk": 18, "model": "country.municipality", "fields": {"logo": "", "postal_code": 127, "name": "Reykjav\u00edk", "area": 1}}, {"pk": 19, "model": "country.municipality", "fields": {"logo": "", "postal_code": 128, "name": "Reykjav\u00edk", "area": 1}}, {"pk": 20, "model": "country.municipality", "fields": {"logo": "", "postal_code": 129, "name": "Reykjav\u00edk", "area": 1}}, {"pk": 21, "model": "country.municipality", "fields": {"logo": "", "postal_code": 130, "name": "Reykjav\u00edk", "area": 1}}, {"pk": 22, "model": "country.municipality", "fields": {"logo": "", "postal_code": 132, "name": "Reykjav\u00edk", "area": 1}}, {"pk": 23, "model": "country.municipality", "fields": {"logo": "", "postal_code": 150, "name": "Reykjav\u00edk", "area": 1}}, {"pk": 24, "model": "country.municipality", "fields": {"logo": "", "postal_code": 155, "name": "Reykjav\u00edk", "area": 1}}, {"pk": 37, "model": "country.municipality", "fields": {"logo": "", "postal_code": 170, "name": "Seltjarnarnes", "area": 1}}, {"pk": 38, "model": "country.municipality", "fields": {"logo": "", "postal_code": 172, "name": "Seltjarnarnes", "area": 1}}, {"pk": 48, "model": "country.municipality", "fields": {"logo": "", "postal_code": 190, "name": "Vogar", "area": 1}}, {"pk": 31, "model": "country.municipality", "fields": {"logo": "", "postal_code": 200, "name": "K\u00f3pavogur", "area": 1}}, {"pk": 32, "model": "country.municipality", "fields": {"logo": "", "postal_code": 201, "name": "K\u00f3pavogur", "area": 1}}, {"pk": 33, "model": "country.municipality", "fields": {"logo": "", "postal_code": 202, "name": "K\u00f3pavogur", "area": 1}}, {"pk": 34, "model": "country.municipality", "fields": {"logo": "", "postal_code": 203, "name": "K\u00f3pavogur", "area": 1}}, {"pk": 25, "model": "country.municipality", "fields": {"logo": "", "postal_code": 210, "name": "Gar\u00f0ab\u00e6r", "area": 1}}, {"pk": 26, "model": "country.municipality", "fields": {"logo": "", "postal_code": 212, "name": "Gar\u00f0ab\u00e6r", "area": 1}}, {"pk": 27, "model": "country.municipality", "fields": {"logo": "", "postal_code": 220, "name": "Hafnarfj\u00f6r\u00f0ur", "area": 1}}, {"pk": 28, "model": "country.municipality", "fields": {"logo": "", "postal_code": 221, "name": "Hafnarfj\u00f6r\u00f0ur", "area": 1}}, {"pk": 29, "model": "country.municipality", "fields": {"logo": "", "postal_code": 222, "name": "Hafnarfj\u00f6r\u00f0ur", "area": 1}}, {"pk": 39, "model": "country.municipality", "fields": {"logo": "", "postal_code": 225, "name": "\u00c1lftanes", "area": 1}}, {"pk": 41, "model": "country.municipality", "fields": {"logo": "", "postal_code": 230, "name": "Reykjanesb\u00e6r", "area": 1}}, {"pk": 42, "model": "country.municipality", "fields": {"logo": "", "postal_code": 232, "name": "Reykjanesb\u00e6r", "area": 1}}, {"pk": 43, "model": "country.municipality", "fields": {"logo": "", "postal_code": 233, "name": "Reykjanesb\u00e6r", "area": 1}}, {"pk": 44, "model": "country.municipality", "fields": {"logo": "", "postal_code": 235, "name": "Reykjanesb\u00e6r", "area": 1}}, {"pk": 40, "model": "country.municipality", "fields": {"logo": "", "postal_code": 240, "name": "Grindav\u00edk", "area": 1}}, {"pk": 46, "model": "country.municipality", "fields": {"logo": "", "postal_code": 245, "name": "Sandger\u00f0i", "area": 1}}, {"pk": 47, "model": "country.municipality", "fields": {"logo": "", "postal_code": 250, "name": "Gar\u00f0ur", "area": 1}}, {"pk": 45, "model": "country.municipality", "fields": {"logo": "", "postal_code": 260, "name": "Reykjanesb\u00e6r", "area": 1}}, {"pk": 35, "model": "country.municipality", "fields": {"logo": "", "postal_code": 270, "name": "Mosfellsb\u00e6r", "area": 1}}, {"pk": 36, "model": "country.municipality", "fields": {"logo": "", "postal_code": 271, "name": "Mosfellsb\u00e6r", "area": 1}}, {"pk": 30, "model": "country.municipality", "fields": {"logo": "", "postal_code": 276, "name": "Mosfellsb\u00e6r", "area": 1}}, {"pk": 49, "model": "country.municipality", "fields": {"logo": "", "postal_code": 300, "name": "Akranes", "area": 2}}, {"pk": 50, "model": "country.municipality", "fields": {"logo": "", "postal_code": 301, "name": "Akranes", "area": 2}}, {"pk": 51, "model": "country.municipality", "fields": {"logo": "", "postal_code": 302, "name": "Akranes", "area": 2}}, {"pk": 52, "model": "country.municipality", "fields": {"logo": "", "postal_code": 310, "name": "Borgarnes", "area": 2}}, {"pk": 53, "model": "country.municipality", "fields": {"logo": "", "postal_code": 311, "name": "Borgarnes", "area": 2}}, {"pk": 54, "model": "country.municipality", "fields": {"logo": "", "postal_code": 320, "name": "Reykholt \u00ed Borgarfir\u00f0i", "area": 2}}, {"pk": 55, "model": "country.municipality", "fields": {"logo": "", "postal_code": 340, "name": "Stykkish\u00f3lmur", "area": 2}}, {"pk": 56, "model": "country.municipality", "fields": {"logo": "", "postal_code": 345, "name": "Flatey \u00e1 Brei\u00f0afir\u00f0i", "area": 2}}, {"pk": 57, "model": "country.municipality", "fields": {"logo": "", "postal_code": 350, "name": "Grundarfj\u00f6r\u00f0ur", "area": 2}}, {"pk": 58, "model": "country.municipality", "fields": {"logo": "", "postal_code": 355, "name": "\u00d3lafsv\u00edk", "area": 2}}, {"pk": 59, "model": "country.municipality", "fields": {"logo": "", "postal_code": 356, "name": "Sn\u00e6fellsb\u00e6r", "area": 2}}, {"pk": 60, "model": "country.municipality", "fields": {"logo": "", "postal_code": 360, "name": "Hellissandur", "area": 2}}, {"pk": 61, "model": "country.municipality", "fields": {"logo": "", "postal_code": 370, "name": "B\u00fa\u00f0ardalur", "area": 2}}, {"pk": 62, "model": "country.municipality", "fields": {"logo": "", "postal_code": 371, "name": "B\u00fa\u00f0ardalur", "area": 2}}, {"pk": 63, "model": "country.municipality", "fields": {"logo": "", "postal_code": 380, "name": "Reykh\u00f3lahreppur", "area": 3}}, {"pk": 64, "model": "country.municipality", "fields": {"logo": "", "postal_code": 400, "name": "\u00cdsafj\u00f6r\u00f0ur", "area": 3}}, {"pk": 65, "model": "country.municipality", "fields": {"logo": "", "postal_code": 401, "name": "\u00cdsafj\u00f6r\u00f0ur", "area": 3}}, {"pk": 66, "model": "country.municipality", "fields": {"logo": "", "postal_code": 410, "name": "Hn\u00edfsdalur", "area": 3}}, {"pk": 67, "model": "country.municipality", "fields": {"logo": "", "postal_code": 415, "name": "Bolungarv\u00edk", "area": 3}}, {"pk": 68, "model": "country.municipality", "fields": {"logo": "", "postal_code": 420, "name": "S\u00fa\u00f0av\u00edk", "area": 3}}, {"pk": 69, "model": "country.municipality", "fields": {"logo": "", "postal_code": 425, "name": "Flateyri", "area": 3}}, {"pk": 70, "model": "country.municipality", "fields": {"logo": "", "postal_code": 430, "name": "Su\u00f0ureyri", "area": 3}}, {"pk": 71, "model": "country.municipality", "fields": {"logo": "", "postal_code": 450, "name": "Patreksfj\u00f6r\u00f0ur", "area": 3}}, {"pk": 72, "model": "country.municipality", "fields": {"logo": "", "postal_code": 451, "name": "Patreksfj\u00f6r\u00f0ur", "area": 3}}, {"pk": 73, "model": "country.municipality", "fields": {"logo": "", "postal_code": 460, "name": "T\u00e1lknafj\u00f6r\u00f0ur", "area": 3}}, {"pk": 74, "model": "country.municipality", "fields": {"logo": "", "postal_code": 465, "name": "B\u00edldudalur", "area": 3}}, {"pk": 75, "model": "country.municipality", "fields": {"logo": "", "postal_code": 470, "name": "\u00deingeyri", "area": 3}}, {"pk": 76, "model": "country.municipality", "fields": {"logo": "", "postal_code": 471, "name": "\u00deingeyri", "area": 3}}, {"pk": 78, "model": "country.municipality", "fields": {"logo": "", "postal_code": 500, "name": "Sta\u00f0ur", "area": 3}}, {"pk": 80, "model": "country.municipality", "fields": {"logo": "", "postal_code": 510, "name": "H\u00f3lmav\u00edk", "area": 3}}, {"pk": 81, "model": "country.municipality", "fields": {"logo": "", "postal_code": 512, "name": "H\u00f3lmav\u00edk", "area": 3}}, {"pk": 79, "model": "country.municipality", "fields": {"logo": "", "postal_code": 520, "name": "Drangsnes", "area": 3}}, {"pk": 77, "model": "country.municipality", "fields": {"logo": "", "postal_code": 524, "name": "\u00c1rneshreppur", "area": 3}}, {"pk": 82, "model": "country.municipality", "fields": {"logo": "", "postal_code": 530, "name": "Hvammstangi", "area": 4}}, {"pk": 83, "model": "country.municipality", "fields": {"logo": "", "postal_code": 531, "name": "Hvammstangi", "area": 4}}, {"pk": 84, "model": "country.municipality", "fields": {"logo": "", "postal_code": 540, "name": "Bl\u00f6ndu\u00f3s", "area": 4}}, {"pk": 85, "model": "country.municipality", "fields": {"logo": "", "postal_code": 541, "name": "Bl\u00f6ndu\u00f3s", "area": 4}}, {"pk": 86, "model": "country.municipality", "fields": {"logo": "", "postal_code": 545, "name": "Skagastr\u00f6nd", "area": 4}}, {"pk": 87, "model": "country.municipality", "fields": {"logo": "", "postal_code": 550, "name": "Sau\u00f0\u00e1rkr\u00f3kur", "area": 4}}, {"pk": 88, "model": "country.municipality", "fields": {"logo": "", "postal_code": 551, "name": "Sau\u00f0\u00e1rkr\u00f3kur", "area": 4}}, {"pk": 89, "model": "country.municipality", "fields": {"logo": "", "postal_code": 560, "name": "Varmahl\u00ed\u00f0", "area": 4}}, {"pk": 90, "model": "country.municipality", "fields": {"logo": "", "postal_code": 565, "name": "Hofs\u00f3s", "area": 4}}, {"pk": 91, "model": "country.municipality", "fields": {"logo": "", "postal_code": 566, "name": "Hofs\u00f3s", "area": 4}}, {"pk": 92, "model": "country.municipality", "fields": {"logo": "", "postal_code": 570, "name": "Flj\u00f3t", "area": 4}}, {"pk": 93, "model": "country.municipality", "fields": {"logo": "", "postal_code": 580, "name": "Fjallabygg\u00f0", "area": 5}}, {"pk": 94, "model": "country.municipality", "fields": {"logo": "", "postal_code": 600, "name": "Akureyri", "area": 5}}, {"pk": 95, "model": "country.municipality", "fields": {"logo": "", "postal_code": 601, "name": "Akureyri", "area": 5}}, {"pk": 96, "model": "country.municipality", "fields": {"logo": "", "postal_code": 602, "name": "Akureyri", "area": 5}}, {"pk": 97, "model": "country.municipality", "fields": {"logo": "", "postal_code": 603, "name": "Akureyri", "area": 5}}, {"pk": 98, "model": "country.municipality", "fields": {"logo": "", "postal_code": 610, "name": "Greniv\u00edk", "area": 5}}, {"pk": 99, "model": "country.municipality", "fields": {"logo": "", "postal_code": 611, "name": "Gr\u00edmsey", "area": 5}}, {"pk": 100, "model": "country.municipality", "fields": {"logo": "", "postal_code": 620, "name": "Dalv\u00edk", "area": 5}}, {"pk": 101, "model": "country.municipality", "fields": {"logo": "", "postal_code": 621, "name": "Dalv\u00edk", "area": 5}}, {"pk": 102, "model": "country.municipality", "fields": {"logo": "", "postal_code": 625, "name": "\u00d3lafsfj\u00f6r\u00f0ur", "area": 5}}, {"pk": 103, "model": "country.municipality", "fields": {"logo": "", "postal_code": 630, "name": "Hr\u00edsey", "area": 5}}, {"pk": 104, "model": "country.municipality", "fields": {"logo": "", "postal_code": 640, "name": "H\u00fasav\u00edk", "area": 5}}, {"pk": 105, "model": "country.municipality", "fields": {"logo": "", "postal_code": 641, "name": "H\u00fasav\u00edk", "area": 5}}, {"pk": 106, "model": "country.municipality", "fields": {"logo": "", "postal_code": 645, "name": "Fossh\u00f3ll", "area": 5}}, {"pk": 107, "model": "country.municipality", "fields": {"logo": "", "postal_code": 650, "name": "Laugar", "area": 5}}, {"pk": 108, "model": "country.municipality", "fields": {"logo": "", "postal_code": 660, "name": "M\u00fdvatn", "area": 5}}, {"pk": 109, "model": "country.municipality", "fields": {"logo": "", "postal_code": 670, "name": "K\u00f3pasker", "area": 5}}, {"pk": 110, "model": "country.municipality", "fields": {"logo": "", "postal_code": 671, "name": "K\u00f3pasker", "area": 5}}, {"pk": 111, "model": "country.municipality", "fields": {"logo": "", "postal_code": 675, "name": "Raufarh\u00f6fn", "area": 5}}, {"pk": 112, "model": "country.municipality", "fields": {"logo": "", "postal_code": 680, "name": "\u00de\u00f3rsh\u00f6fn", "area": 5}}, {"pk": 113, "model": "country.municipality", "fields": {"logo": "", "postal_code": 681, "name": "\u00de\u00f3rsh\u00f6fn", "area": 5}}, {"pk": 114, "model": "country.municipality", "fields": {"logo": "", "postal_code": 685, "name": "Bakkafj\u00f6r\u00f0ur", "area": 5}}, {"pk": 115, "model": "country.municipality", "fields": {"logo": "", "postal_code": 690, "name": "Vopnafj\u00f6r\u00f0ur", "area": 6}}, {"pk": 116, "model": "country.municipality", "fields": {"logo": "", "postal_code": 700, "name": "Egilssta\u00f0ir", "area": 6}}, {"pk": 117, "model": "country.municipality", "fields": {"logo": "", "postal_code": 701, "name": "Egilssta\u00f0ir", "area": 6}}, {"pk": 118, "model": "country.municipality", "fields": {"logo": "", "postal_code": 710, "name": "Sey\u00f0isfj\u00f6r\u00f0ur", "area": 6}}, {"pk": 119, "model": "country.municipality", "fields": {"logo": "", "postal_code": 715, "name": "Mj\u00f3ifj\u00f6r\u00f0ur", "area": 6}}, {"pk": 120, "model": "country.municipality", "fields": {"logo": "", "postal_code": 720, "name": "Borgarfj\u00f6r\u00f0ur eystri", "area": 6}}, {"pk": 121, "model": "country.municipality", "fields": {"logo": "", "postal_code": 730, "name": "Rey\u00f0arfj\u00f6r\u00f0ur", "area": 6}}, {"pk": 122, "model": "country.municipality", "fields": {"logo": "", "postal_code": 735, "name": "Eskifj\u00f6r\u00f0ur", "area": 6}}, {"pk": 123, "model": "country.municipality", "fields": {"logo": "", "postal_code": 740, "name": "Neskaupsta\u00f0ur", "area": 6}}, {"pk": 124, "model": "country.municipality", "fields": {"logo": "", "postal_code": 750, "name": "F\u00e1skr\u00fa\u00f0sfj\u00f6r\u00f0ur", "area": 6}}, {"pk": 125, "model": "country.municipality", "fields": {"logo": "", "postal_code": 755, "name": "St\u00f6\u00f0varfj\u00f6r\u00f0ur", "area": 6}}, {"pk": 126, "model": "country.municipality", "fields": {"logo": "", "postal_code": 760, "name": "Brei\u00f0dalsv\u00edk", "area": 6}}, {"pk": 127, "model": "country.municipality", "fields": {"logo": "", "postal_code": 765, "name": "Dj\u00fapivogur", "area": 6}}, {"pk": 128, "model": "country.municipality", "fields": {"logo": "", "postal_code": 780, "name": "H\u00f6fn \u00ed Hornafir\u00f0i", "area": 7}}, {"pk": 129, "model": "country.municipality", "fields": {"logo": "", "postal_code": 781, "name": "H\u00f6fn \u00ed Hornafir\u00f0i", "area": 7}}, {"pk": 130, "model": "country.municipality", "fields": {"logo": "", "postal_code": 785, "name": "\u00d6r\u00e6fi", "area": 7}}, {"pk": 131, "model": "country.municipality", "fields": {"logo": "", "postal_code": 800, "name": "Selfoss", "area": 7}}, {"pk": 132, "model": "country.municipality", "fields": {"logo": "", "postal_code": 801, "name": "Selfoss", "area": 7}}, {"pk": 133, "model": "country.municipality", "fields": {"logo": "", "postal_code": 802, "name": "Selfoss", "area": 7}}, {"pk": 134, "model": "country.municipality", "fields": {"logo": "", "postal_code": 810, "name": "Hverager\u00f0i", "area": 7}}, {"pk": 135, "model": "country.municipality", "fields": {"logo": "", "postal_code": 815, "name": "\u00deorl\u00e1ksh\u00f6fn", "area": 7}}, {"pk": 136, "model": "country.municipality", "fields": {"logo": "", "postal_code": 820, "name": "Eyrarbakki", "area": 7}}, {"pk": 137, "model": "country.municipality", "fields": {"logo": "", "postal_code": 825, "name": "Stokkseyri", "area": 7}}, {"pk": 138, "model": "country.municipality", "fields": {"logo": "", "postal_code": 840, "name": "Laugarvatn", "area": 7}}, {"pk": 139, "model": "country.municipality", "fields": {"logo": "", "postal_code": 845, "name": "Fl\u00fa\u00f0ir", "area": 7}}, {"pk": 140, "model": "country.municipality", "fields": {"logo": "", "postal_code": 850, "name": "Hella", "area": 7}}, {"pk": 141, "model": "country.municipality", "fields": {"logo": "", "postal_code": 851, "name": "Hella", "area": 7}}, {"pk": 142, "model": "country.municipality", "fields": {"logo": "", "postal_code": 860, "name": "Hvolsv\u00f6llur", "area": 7}}, {"pk": 143, "model": "country.municipality", "fields": {"logo": "", "postal_code": 861, "name": "Hvolsv\u00f6llur", "area": 7}}, {"pk": 144, "model": "country.municipality", "fields": {"logo": "", "postal_code": 870, "name": "V\u00edk", "area": 7}}, {"pk": 145, "model": "country.municipality", "fields": {"logo": "", "postal_code": 871, "name": "V\u00edk", "area": 7}}, {"pk": 146, "model": "country.municipality", "fields": {"logo": "", "postal_code": 880, "name": "Kirkjub\u00e6jarklaustur", "area": 7}}, {"pk": 147, "model": "country.municipality", "fields": {"logo": "", "postal_code": 900, "name": "Vestmannaeyjar", "area": 7}}, {"pk": 148, "model": "country.municipality", "fields": {"logo": "", "postal_code": 902, "name": "Vestmannaeyjar", "area": 7}}]
